[{"OBJECT_NAME":"STARLINK-5732","OBJECT_ID":"2023-020D","EPOCH":"2026-03-09T04:58:15.357216","MEAN_MOTION":15.02530703,"ECCENTRICITY":9.817e-5,"INCLINATION":43.0025,"RA_OF_ASC_NODE":7.5285,"ARG_OF_PERICENTER":258.253,"MEAN_ANOMALY":101.8203,"EPHEMERIS_TYPE":0,"CLASSIFICATION_TYPE":"U","NORAD_CAT_ID":55572,"ELEMENT_SET_NO":999,"REV_AT_EPOCH":16884,"BSTAR":-7.1304503e-5,"MEAN_MOTION_DOT":-1.166e-5,"MEAN_MOTION_DDOT":0},{"OBJECT_NAME":"CZ-4B DEB","OBJECT_ID":"2008-053M","EPOCH":"2026-03-05T07:18:48.921696","MEAN_MOTION":15.08195439,"ECCENTRICITY":0.0017401,"INCLINATION":97.8281,"RA_OF_ASC_NODE":90.6528,"ARG_OF_PERICENTER":258.7901,"MEAN_ANOMALY":101.1371,"EPHEMERIS_TYPE":0,"CLASSIFICATION_TYPE":"U","NORAD_CAT_ID":44593,"ELEMENT_SET_NO":999,"REV_AT_EPOCH":67199,"BSTAR":0.00019653,"MEAN_MOTION_DOT":2.982e-5,"MEAN_MOTION_DDOT":0}]
